[{"OBJECT_NAME":"OBJECT K","OBJECT_ID":"2024-205K","EPOCH":"2026-03-09T22:22:01.331040","MEAN_MOTION":15.27932792,"ECCENTRICITY":0.00106729,"INCLINATION":97.417,"RA_OF_ASC_NODE":146.2172,"ARG_OF_PERICENTER":37.4736,"MEAN_ANOMALY":322.7246,"EPHEMERIS_TYPE":0,"CLASSIFICATION_TYPE":"U","NORAD_CAT_ID":61903,"ELEMENT_SET_NO":999,"REV_AT_EPOCH":7347,"BSTAR":0.00067315144,"MEAN_MOTION_DOT":0.00018331,"MEAN_MOTION_DDOT":0},{"OBJECT_NAME":"STARLINK-35356","OBJECT_ID":"2025-221P","EPOCH":"2026-03-09T08:22:21.093600","MEAN_MOTION":15.30201389,"ECCENTRICITY":0.00012478,"INCLINATION":53.1576,"RA_OF_ASC_NODE":89.7528,"ARG_OF_PERICENTER":83.8441,"MEAN_ANOMALY":276.2702,"EPHEMERIS_TYPE":0,"CLASSIFICATION_TYPE":"U","NORAD_CAT_ID":65836,"ELEMENT_SET_NO":999,"REV_AT_EPOCH":2468,"BSTAR":0.00047241541,"MEAN_MOTION_DOT":0.00013659,"MEAN_MOTION_DDOT":0}]
